COMMENT,ORIGINATOR,NORAD_CAT_ID,OBJECT_NAME,OBJECT_TYPE,CLASSIFICATION_TYPE,INTLDES,EPOCH,EPOCH_MICROSECONDS,MEAN_MOTION,ECCENTRICITY,INCLINATION,RA_OF_ASC_NODE,ARG_OF_PERICENTER,MEAN_ANOMALY,EPHEMERIS_TYPE,ELEMENT_SET_NO,REV_AT_EPOCH,BSTAR,MEAN_MOTION_DOT,MEAN_MOTION_DDOT,FILE,TLE_LINE0,TLE_LINE1,TLE_LINE2,OBJECT_ID,OBJECT_NUMBER,SEMIMAJOR_AXIS,PERIOD,APOGEE,PERIGEE
"GENERATED VIA SPACETRACK.ORG API","JSPOC","28352","COSMOS 2406","PAYLOAD","U","04021A","2016-01-13 21:37:07","44672","14.1144287","0.0014095","71.0051","130.8885","177.8249","321.7293","0","999","59738","1.0712e-05","-2.8e-07","0","1980270","0 COSMOS 2406","1 28352U 04021A   16013.90077598 -.00000028 +00000-0 +10712-4 0  9999","2 28352 071.0051 130.8885 0014095 177.8249 321.7293 14.11442870597387","2004-021A","28352","7232.575","102.023","864.634","844.246"
"GENERATED VIA SPACETRACK.ORG API","JSPOC","22999","COSMOS 2268","PAYLOAD","U","94011A","2016-01-13 21:37:12","385056","12.61139673","0.0009734","82.5753","245.2698","168.3346","320.6574","0","999","883","-1.1878e-05","8e-08","0","1980270","0 COSMOS 2268","1 22999U 94011A   16013.90083779 +.00000008 +00000-0 -11878-4 0  9998","2 22999 082.5753 245.2698 0009734 168.3346 320.6574 12.61139673008838","1994-011A","22999","7796.380","114.182","1425.834","1410.656"
"GENERATED VIA SPACETRACK.ORG API","JSPOC","1815","SCOUT X-4 R/B","ROCKET BODY","U","65101B","2016-01-13 21:37:14","829312","14.782631","0.0004894","75.8471","191.0746","3.7095","356.4125","0","999","50450","0.00012059","8.58e-06","0","1980270","0 SCOUT X-4 R/B","1  1815U 65101B   16013.90086608 +.00000858 +00000-0 +12059-3 0  9997","2  1815 075.8471 191.0746 0004894 003.7095 356.4125 14.78263100504508","1965-101B","1815","7012.949","97.411","638.246","631.381"
"GENERATED VIA SPACETRACK.ORG API","JSPOC","13068","SL-3 R/B","ROCKET BODY","U","82013B","2016-01-13 21:37:24","454272","15.06339949","0.0021281","81.2043","96.2072","232.6065","127.3221","0","999","84488","0.00011389","1.705e-05","0","1980270","0 SL-3 R/B","1 13068U 82013B   16013.90097748 +.00001705 +00000-0 +11389-3 0  9995","2 13068 081.2043 096.2072 0021281 232.6065 127.3221 15.06339949844881","1982-013B","13068","6925.532","95.595","562.135","532.659"
"GENERATED VIA SPACETRACK.ORG API","JSPOC","21983","COSMOS 2194","PAYLOAD","U","92030H","2016-01-13 21:37:26","315328","12.48423286","0.0017432","74.0041","347.4417","212.308","175.8034","0","999","7615","-1.3559e-05","-1.8e-07","0","1980270","0 COSMOS 2194","1 21983U 92030H   16013.90099902 -.00000018 +00000-0 -13559-4 0  9994","2 21983 074.0041 347.4417 0017432 212.3080 175.8034 12.48423286076151","1992-030H","21983","7849.233","115.345","1484.781","1457.416"
"GENERATED VIA SPACETRACK.ORG API","JSPOC","6910","SCOUT A-1 R/B","ROCKET BODY","U","73081B","2016-01-13 21:37:29","627904","13.69020213","0.0159987","89.8352","319.6015","164.6534","195.9563","0","999","10582","7.6745e-05","8.4e-07","0","1980270","0 SCOUT A-1 R/B","1  6910U 73081B   16013.90103736 +.00000084 +00000-0 +76745-4 0  9990","2  6910 089.8352 319.6015 0159987 164.6534 195.9563 13.69020213105827","1973-081B","6910","7381.227","105.184","1121.182","885.002"
"GENERATED VIA SPACETRACK.ORG API","JSPOC","40064","BREEZE-KM R/B","ROCKET BODY","U","14036D","2016-01-13 21:37:30","859104","12.81699279","0.0231123","82.5136","126.4008","41.6845","320.1615","0","999","7163","0.00014305","5e-07","0","1980270","0 BREEZE-KM R/B","1 40064U 14036D   16013.90105161 +.00000050 +00000-0 +14305-3 0  9993","2 40064 082.5136 126.4008 0231123 041.6845 320.1615 12.81699279071631","2014-036D","40064","7712.782","112.350","1512.907","1156.387"
"GENERATED VIA SPACETRACK.ORG API","JSPOC","11132","COSMOS 1055","PAYLOAD","U","78109E","2016-01-13 21:37:42","472128","12.46901145","0.0015989","74.0172","78.2768","78.6314","324.717","0","999","68899","0.00011698","1e-08","0","1980270","0 COSMOS 1055","1 11132U 78109E   16013.90118602 +.00000001 +00000-0 +11698-3 0  9990","2 11132 074.0172 078.2768 0015989 078.6314 324.7170 12.46901145688997","1978-109E","11132","7855.620","115.486","1490.045","1464.925"
"GENERATED VIA SPACETRACK.ORG API","JSPOC","18362","OSCAR 29","PAYLOAD","U","87080B","2016-01-13 21:37:43","591008","13.43982896","0.0106744","90.3471","318.1994","164.0355","252.6189","0","999","38869","0.00010728","7.3e-07","0","1980270","0 OSCAR 29","1 18362U 87080B   16013.90119897 +.00000073 +00000-0 +10728-3 0  9999","2 18362 090.3471 318.1994 0106744 164.0355 252.6189 13.43982896388697","1987-080B","18362","7472.616","107.144","1174.246","1014.715"
"GENERATED VIA SPACETRACK.ORG API","JSPOC","15006","SL-8 R/B","ROCKET BODY","U","84052J","2016-01-13 21:37:48","999648","12.23681493","0.0133262","74.0135","355.742","323.5844","59.5211","0","999","41288","0.00040237","3e-07","0","1980270","0 SL-8 R/B","1 15006U 84052J   16013.90126157 +.00000030 +00000-0 +40237-3 0  9995","2 15006 074.0135 355.7420 0133262 323.5844 059.5211 12.23681493412881","1984-052J","15006","7954.683","117.677","1682.554","1470.542"
"GENERATED VIA SPACETRACK.ORG API","JSPOC","39395","COPPER","PAYLOAD","U","13064R","2016-01-13 21:37:49","810080","15.91447717","0.0013598","40.482","217.187","317.8636","42.1151","0","999","11772","0.00094269","0.00317168","0","1980270","0 COPPER","1 39395U 13064R   16013.90127095 +.00317168 +43636-4 +94269-3 0  9992","2 39395 040.4820 217.1870 0013598 317.8636 042.1151 15.91447717117723","2013-064R","39395","6676.367","90.483","307.311","289.154"
"GENERATED VIA SPACETRACK.ORG API","JSPOC","8611","COSMOS 795","PAYLOAD","U","76008E","2016-01-13 21:37:53","719680","12.45744423","0.0020208","74.0535","166.77","333.2622","195.9682","0","999","81720","8.2888e-06","-1.4e-07","0","1980270","0 COSMOS 795","1  8611U 76008E   16013.90131620 -.00000014 +00000-0 +82888-5 0  9995","2  8611 074.0535 166.7700 0020208 333.2622 195.9682 12.45744423817206","1976-008E","8611","7860.482","115.593","1498.231","1466.463"
"GENERATED VIA SPACETRACK.ORG API","JSPOC","3081","COSMOS 198","PAYLOAD","U","67127A","2016-01-13 21:37:55","854624","13.93224013","0.0023905","65.1405","161.6841","356.966","3.1257","0","999","44316","-2.7635e-05","-1.26e-06","0","1980270","0 COSMOS 198","1  3081U 67127A   16013.90134091 -.00000126 +00000-0 -27635-4 0  9991","2  3081 065.1405 161.6841 0023905 356.9660 003.1257 13.93224013443160","1967-127A","3081","7295.491","103.357","934.796","899.916"
"GENERATED VIA SPACETRACK.ORG API","JSPOC","21835","MAGION 3","PAYLOAD","U","91086E","2016-01-13 21:37:58","623744","12.09623112","0.1504535","82.5381","351.0699","32.69","335.883","0","999","5198","0.00038176","2.06e-05","0","1980270","0 MAGION 3","1 21835U 91086E   16013.90137296 +.00002060 +00000-0 +38176-3 0  9997","2 21835 082.5381 351.0699 1504535 032.6900 335.8830 12.09623112051984","1991-086E","21835","8016.198","119.045","2844.128","431.998"
"GENERATED VIA SPACETRACK.ORG API","JSPOC","28220","TANSUO 1","PAYLOAD","U","04012A","2016-01-13 21:38:08","112192","14.98222901","0.001243","97.628","332.9384","93.5917","266.6727","0","999","63836","0.00021096","2.451e-05","0","1980270","0 TANSUO 1","1 28220U 04012A   16013.90148278 +.00002451 +00000-0 +21096-3 0  9994","2 28220 097.6280 332.9384 0012430 093.5917 266.6727 14.98222901638364","2004-012A","28220","6950.524","96.113","581.028","563.749"
"GENERATED VIA SPACETRACK.ORG API","JSPOC","28480","CZ-2C R/B","ROCKET BODY","U","04046B","2016-01-13 21:38:13","725600","14.25561438","0.014131","98.1654","138.2248","320.6562","190.2485","0","999","58008","4.575e-05","7.8e-07","0","1980270","0 CZ-2C R/B","1 28480U 04046B   16013.90154775 +.00000078 +00000-0 +45750-4 0  9995","2 28480 098.1654 138.2248 0141310 320.6562 190.2485 14.25561438580088","2004-046B","28480","7184.742","101.012","908.135","705.080"
"GENERATED VIA SPACETRACK.ORG API","JSPOC","19802","NAVSTAR 13 (USA 35)","PAYLOAD","U","89013A","2016-01-13 21:38:19","785696","1.85321986","0.0039439","54.3085","223.4168","151.3149","226.9147","0","999","18771","0","7.3e-07","0","1980270","0 NAVSTAR 13 (USA 35)","1 19802U 89013A   16013.90161789 +.00000073 +00000-0 +00000-0 0  9993","2 19802 054.3085 223.4168 0039439 151.3149 226.9147 01.85321986187713","1989-013A","19802","27997.368","777.025","21729.652","21508.814"
"GENERATED VIA SPACETRACK.ORG API","JSPOC","2174","THOR AGENA B R/B","ROCKET BODY","U","66040B","2016-01-13 21:38:22","837344","13.36042178","0.0056373","100.4724","163.4969","28.1503","137.2559","0","999","42076","1.2718e-05","-4.1e-07","0","1980270","0 THOR AGENA B R/B","1  2174U 66040B   16013.90165321 -.00000041 +00000-0 +12718-4 0  9997","2  2174 100.4724 163.4969 0056373 028.1503 137.2559 13.36042178420761","1966-040B","2174","7502.195","107.781","1166.352","1081.768"
"GENERATED VIA SPACETRACK.ORG API","JSPOC","16681","COSMOS 1741","PAYLOAD","U","86030A","2016-01-13 21:38:33","10080","14.32874184","0.0020205","74.0225","170.2183","283.6011","231.2719","0","999","55388","3.7222e-05","7.5e-07","0","1980270","0 COSMOS 1741","1 16681U 86030A   16013.90177095 +.00000075 +00000-0 +37222-4 0  9990","2 16681 074.0225 170.2183 0020205 283.6011 231.2719 14.32874184553882","1986-030A","16681","7160.276","100.497","796.608","767.674"
"GENERATED VIA SPACETRACK.ORG API","JSPOC","24946","IRIDIUM 33","PAYLOAD","U","97051C","2016-01-13 21:38:33","733248","14.3345554","0.0009462","86.3907","144.5133","129.6187","20.3459","0","999","95947","6.033e-05","1.86e-06","0","1980270","0 IRIDIUM 33","1 24946U 97051C   16013.90177932 +.00000186 +00000-0 +60330-4 0  9997","2 24946 086.3907 144.5133 0009462 129.6187 020.3459 14.33455540959477","1997-051C","24946","7158.340","100.456","786.978","773.432"
